[{"OBJECT_NAME":"ONEWEB-0137","OBJECT_ID":"2020-100AB","EPOCH":"2026-04-15T06:05:07.037088","MEAN_MOTION":13.12441548,"ECCENTRICITY":0.0001642,"INCLINATION":87.9014,"RA_OF_ASC_NODE":3.1577,"ARG_OF_PERICENTER":80.3746,"MEAN_ANOMALY":279.7568,"EPHEMERIS_TYPE":0,"CLASSIFICATION_TYPE":"U","NORAD_CAT_ID":47283,"ELEMENT_SET_NO":999,"REV_AT_EPOCH":25631,"BSTAR":0.0008707700000000001,"MEAN_MOTION_DOT":3.26e-06,"MEAN_MOTION_DDOT":0.0},{"OBJECT_NAME":"ONEWEB-0138","OBJECT_ID":"2020-100AC","EPOCH":"2026-04-15T03:43:36.985152","MEAN_MOTION":13.12442534,"ECCENTRICITY":0.000188,"INCLINATION":87.9009,"RA_OF_ASC_NODE":3.1849,"ARG_OF_PERICENTER":72.5146,"MEAN_ANOMALY":287.6188,"EPHEMERIS_TYPE":0,"CLASSIFICATION_TYPE":"U","NORAD_CAT_ID":47284,"ELEMENT_SET_NO":999,"REV_AT_EPOCH":25638,"BSTAR":0.0010662,"MEAN_MOTION_DOT":3.96e-06,"MEAN_MOTION_DDOT":0.0},{"OBJECT_NAME":"ONEWEB-0139","OBJECT_ID":"2020-100AD","EPOCH":"2026-04-14T23:13:01.193088","MEAN_MOTION":13.12441007,"ECCENTRICITY":0.0001787,"INCLINATION":87.9024,"RA_OF_ASC_NODE":3.2086,"ARG_OF_PERICENTER":78.0206,"MEAN_ANOMALY":282.1123,"EPHEMERIS_TYPE":0,"CLASSIFICATION_TYPE":"U","NORAD_CAT_ID":47285,"ELEMENT_SET_NO":999,"REV_AT_EPOCH":25643,"BSTAR":-0.001139,"MEAN_MOTION_DOT":-3.97e-06,"MEAN_MOTION_DDOT":0.0},{"OBJECT_NAME":"ONEWEB-0140","OBJECT_ID":"2020-100AE","EPOCH":"2026-04-15T05:26:04.752096","MEAN_MOTION":13.12443124,"ECCENTRICITY":0.000195,"INCLINATION":87.901,"RA_OF_ASC_NODE":3.1474,"ARG_OF_PERICENTER":81.6248,"MEAN_ANOMALY":278.5101,"EPHEMERIS_TYPE":0,"CLASSIFICATION_TYPE":"U","NORAD_CAT_ID":47286,"ELEMENT_SET_NO":999,"REV_AT_EPOCH":25643,"BSTAR":0.0006513000000000001,"MEAN_MOTION_DOT":2.47e-06,"MEAN_MOTION_DDOT":0.0},{"OBJECT_NAME":"ONEWEB-0141","OBJECT_ID":"2020-100AF","EPOCH":"2026-04-15T06:31:44.704416","MEAN_MOTION":13.12441087,"ECCENTRICITY":0.0001456,"INCLINATION":87.9016,"RA_OF_ASC_NODE":3.1436,"ARG_OF_PERICENTER":80.7002,"MEAN_ANOMALY":279.4291,"EPHEMERIS_TYPE":0,"CLASSIFICATION_TYPE":"U","NORAD_CAT_ID":47287,"ELEMENT_SET_NO":999,"REV_AT_EPOCH":25642,"BSTAR":-0.0011829000000000002,"MEAN_MOTION_DOT":-4.13e-06,"MEAN_MOTION_DDOT":0.0},{"OBJECT_NAME":"ONEWEB-0142","OBJECT_ID":"2020-100AG","EPOCH":"2026-04-15T06:15:04.057632","MEAN_MOTION":13.12440924,"ECCENTRICITY":0.0001474,"INCLINATION":87.9015,"RA_OF_ASC_NODE":3.1706,"ARG_OF_PERICENTER":69.6237,"MEAN_ANOMALY":290.5049,"EPHEMERIS_TYPE":0,"CLASSIFICATION_TYPE":"U","NORAD_CAT_ID":47288,"ELEMENT_SET_NO":999,"REV_AT_EPOCH":25641,"BSTAR":-0.00010495,"MEAN_MOTION_DOT":-2.5e-07,"MEAN_MOTION_DDOT":0.0},{"OBJECT_NAME":"ONEWEB-0143","OBJECT_ID":"2020-100AH","EPOCH":"2026-04-15T06:29:30.265152","MEAN_MOTION":13.12441411,"ECCENTRICITY":0.000175,"INCLINATION":87.901,"RA_OF_ASC_NODE":3.165,"ARG_OF_PERICENTER":78.9826,"MEAN_ANOMALY":281.1499,"EPHEMERIS_TYPE":0,"CLASSIFICATION_TYPE":"U","NORAD_CAT_ID":47289,"ELEMENT_SET_NO":999,"REV_AT_EPOCH":25639,"BSTAR":-0.00079535,"MEAN_MOTION_DOT":-2.73e-06,"MEAN_MOTION_DDOT":0.0},{"OBJECT_NAME":"ONEWEB-0144","OBJECT_ID":"2020-100AJ","EPOCH":"2026-04-15T03:58:14.679552","MEAN_MOTION":13.12444232,"ECCENTRICITY":0.0001786,"INCLINATION":87.9013,"RA_OF_ASC_NODE":3.1571,"ARG_OF_PERICENTER":67.7931,"MEAN_ANOMALY":292.3387,"EPHEMERIS_TYPE":0,"CLASSIFICATION_TYPE":"U","NORAD_CAT_ID":47290,"ELEMENT_SET_NO":999,"REV_AT_EPOCH":25630,"BSTAR":0.001424,"MEAN_MOTION_DOT":5.25e-06,"MEAN_MOTION_DDOT":0.0},{"OBJECT_NAME":"ONEWEB-0145","OBJECT_ID":"2020-100AK","EPOCH":"2026-04-15T05:06:33.464448","MEAN_MOTION":13.12443102,"ECCENTRICITY":0.0001773,"INCLINATION":87.9003,"RA_OF_ASC_NODE":3.1823,"ARG_OF_PERICENTER":76.0464,"MEAN_ANOMALY":284.0861,"EPHEMERIS_TYPE":0,"CLASSIFICATION_TYPE":"U","NORAD_CAT_ID":47291,"ELEMENT_SET_NO":999,"REV_AT_EPOCH":25650,"BSTAR":-0.00065759,"MEAN_MOTION_DOT":-2.24e-06,"MEAN_MOTION_DDOT":0.0},{"OBJECT_NAME":"ONEWEB-0146","OBJECT_ID":"2020-100AL","EPOCH":"2026-04-15T05:01:40.519200","MEAN_MOTION":13.12442688,"ECCENTRICITY":0.0002001,"INCLINATION":87.9011,"RA_OF_ASC_NODE":3.1703,"ARG_OF_PERICENTER":87.8777,"MEAN_ANOMALY":272.258,"EPHEMERIS_TYPE":0,"CLASSIFICATION_TYPE":"U","NORAD_CAT_ID":47292,"ELEMENT_SET_NO":999,"REV_AT_EPOCH":25641,"BSTAR":-0.00091406,"MEAN_MOTION_DOT":-3.16e-06,"MEAN_MOTION_DDOT":0.0},{"OBJECT_NAME":"ONEWEB-0147","OBJECT_ID":"2020-100AM","EPOCH":"2026-04-15T04:12:53.018496","MEAN_MOTION":13.12440747,"ECCENTRICITY":0.0001931,"INCLINATION":87.9007,"RA_OF_ASC_NODE":3.1577,"ARG_OF_PERICENTER":77.0464,"MEAN_ANOMALY":283.088,"EPHEMERIS_TYPE":0,"CLASSIFICATION_TYPE":"U","NORAD_CAT_ID":47293,"ELEMENT_SET_NO":999,"REV_AT_EPOCH":25630,"BSTAR":0.00079804,"MEAN_MOTION_DOT":3e-06,"MEAN_MOTION_DDOT":0.0},{"OBJECT_NAME":"ONEWEB-0115","OBJECT_ID":"2021-025A","EPOCH":"2026-04-15T00:35:15.924768","MEAN_MOTION":13.1346772,"ECCENTRICITY":0.0001791,"INCLINATION":87.8986,"RA_OF_ASC_NODE":332.8001,"ARG_OF_PERICENTER":84.2877,"MEAN_ANOMALY":275.8456,"EPHEMERIS_TYPE":0,"CLASSIFICATION_TYPE":"U","NORAD_CAT_ID":48042,"ELEMENT_SET_NO":999,"REV_AT_EPOCH":24530,"BSTAR":-0.00015618,"MEAN_MOTION_DOT":-4.4e-07,"MEAN_MOTION_DDOT":0.0},{"OBJECT_NAME":"ONEWEB-0152","OBJECT_ID":"2021-025B","EPOCH":"2026-04-15T00:54:45.680544","MEAN_MOTION":13.13468796,"ECCENTRICITY":0.00018,"INCLINATION":87.8973,"RA_OF_ASC_NODE":332.796,"ARG_OF_PERICENTER":85.0615,"MEAN_ANOMALY":275.0719,"EPHEMERIS_TYPE":0,"CLASSIFICATION_TYPE":"U","NORAD_CAT_ID":48043,"ELEMENT_SET_NO":999,"REV_AT_EPOCH":24526,"BSTAR":-0.0007073100000000001,"MEAN_MOTION_DOT":-2.46e-06,"MEAN_MOTION_DDOT":0.0},{"OBJECT_NAME":"ONEWEB-0153","OBJECT_ID":"2021-025C","EPOCH":"2026-04-15T02:12:46.473120","MEAN_MOTION":13.13469174,"ECCENTRICITY":0.0001642,"INCLINATION":87.8984,"RA_OF_ASC_NODE":332.7906,"ARG_OF_PERICENTER":80.2284,"MEAN_ANOMALY":279.9031,"EPHEMERIS_TYPE":0,"CLASSIFICATION_TYPE":"U","NORAD_CAT_ID":48044,"ELEMENT_SET_NO":999,"REV_AT_EPOCH":24526,"BSTAR":0.0008093200000000001,"MEAN_MOTION_DOT":3.08e-06,"MEAN_MOTION_DDOT":0.0},{"OBJECT_NAME":"ONEWEB-0154","OBJECT_ID":"2021-025D","EPOCH":"2026-04-15T03:57:34.075872","MEAN_MOTION":13.13480174,"ECCENTRICITY":0.0001808,"INCLINATION":87.8983,"RA_OF_ASC_NODE":332.7738,"ARG_OF_PERICENTER":81.5328,"MEAN_ANOMALY":278.6006,"EPHEMERIS_TYPE":0,"CLASSIFICATION_TYPE":"U","NORAD_CAT_ID":48045,"ELEMENT_SET_NO":999,"REV_AT_EPOCH":24523,"BSTAR":0.0032689000000000004,"MEAN_MOTION_DOT":1.207e-05,"MEAN_MOTION_DDOT":0.0},{"OBJECT_NAME":"ONEWEB-0116","OBJECT_ID":"2021-025E","EPOCH":"2026-04-15T01:14:15.610848","MEAN_MOTION":13.13469228,"ECCENTRICITY":0.0001851,"INCLINATION":87.8993,"RA_OF_ASC_NODE":332.7872,"ARG_OF_PERICENTER":86.3639,"MEAN_ANOMALY":273.7702,"EPHEMERIS_TYPE":0,"CLASSIFICATION_TYPE":"U","NORAD_CAT_ID":48046,"ELEMENT_SET_NO":999,"REV_AT_EPOCH":24536,"BSTAR":-0.00043007,"MEAN_MOTION_DOT":-1.44e-06,"MEAN_MOTION_DDOT":0.0}]