ONEWEB-0137             
1 47283U 20100AB  26105.25355367  .00000326  00000+0  87077-3 0  9999
2 47283  87.9014   3.1577 0001642  80.3746 279.7568 13.12441548256313
ONEWEB-0138             
1 47284U 20100AC  26105.15528918  .00000396  00000+0  10662-2 0  9995
2 47284  87.9009   3.1849 0001880  72.5146 287.6188 13.12442534256380
ONEWEB-0139             
1 47285U 20100AD  26104.96737492 -.00000397  00000+0 -11390-2 0  9995
2 47285  87.9024   3.2086 0001787  78.0206 282.1123 13.12441007256435
ONEWEB-0140             
1 47286U 20100AE  26105.22644389  .00000247  00000+0  65130-3 0  9992
2 47286  87.9010   3.1474 0001950  81.6248 278.5101 13.12443124256436
ONEWEB-0141             
1 47287U 20100AF  26105.27204519 -.00000413  00000+0 -11829-2 0  9997
2 47287  87.9016   3.1436 0001456  80.7002 279.4291 13.12441087256425
ONEWEB-0142             
1 47288U 20100AG  26105.26046363 -.00000025  00000+0 -10495-3 0  9996
2 47288  87.9015   3.1706 0001474  69.6237 290.5049 13.12440924256414
ONEWEB-0143             
1 47289U 20100AH  26105.27048918 -.00000273  00000+0 -79535-3 0  9991
2 47289  87.9010   3.1650 0001750  78.9826 281.1499 13.12441411256396
ONEWEB-0144             
1 47290U 20100AJ  26105.16544768  .00000525  00000+0  14240-2 0  9994
2 47290  87.9013   3.1571 0001786  67.7931 292.3387 13.12444232256300
ONEWEB-0145             
1 47291U 20100AK  26105.21288732 -.00000224  00000+0 -65759-3 0  9997
2 47291  87.9003   3.1823 0001773  76.0464 284.0861 13.12443102256502
ONEWEB-0146             
1 47292U 20100AL  26105.20949675 -.00000316  00000+0 -91406-3 0  9997
2 47292  87.9011   3.1703 0002001  87.8777 272.2580 13.12442688256416
ONEWEB-0147             
1 47293U 20100AM  26105.17561364  .00000300  00000+0  79804-3 0  9998
2 47293  87.9007   3.1577 0001931  77.0464 283.0880 13.12440747256301
ONEWEB-0115             
1 48042U 21025A   26105.02448987 -.00000044  00000+0 -15618-3 0  9997
2 48042  87.8986 332.8001 0001791  84.2877 275.8456 13.13467720245302
ONEWEB-0152             
1 48043U 21025B   26105.03802871 -.00000246  00000+0 -70731-3 0  9996
2 48043  87.8973 332.7960 0001800  85.0615 275.0719 13.13468796245265
ONEWEB-0153             
1 48044U 21025C   26105.09220455  .00000308  00000+0  80932-3 0  9996
2 48044  87.8984 332.7906 0001642  80.2284 279.9031 13.13469174245262
ONEWEB-0154             
1 48045U 21025D   26105.16497773  .00001207  00000+0  32689-2 0  9998
2 48045  87.8983 332.7738 0001808  81.5328 278.6006 13.13480174245230
ONEWEB-0116             
1 48046U 21025E   26105.05156957 -.00000144  00000+0 -43007-3 0  9991
2 48046  87.8993 332.7872 0001851  86.3639 273.7702 13.13469228245367
